ORBCOMM FM103 [+]       
1 40091U 14040F   24090.95517173  .00001563  00000+0  38603-3 0  9993
2 40091  47.0060 308.2185 0001537  35.5062 324.5925 14.56427943499453
ORBCOMM FM114 [+]       
1 41179U 15081A   24090.64624816  .00001858  00000+0  45143-3 0  9990
2 41179  47.0009 218.9698 0001080 141.0977 218.9985 14.56445634439779
ORBCOMM FM119 [-]       
1 41180U 15081B   24090.82131662  .00001387  00000+0  34677-3 0  9991
2 41180  46.9996 127.3324 0001589 218.0951 141.9822 14.56416231441054
ORBCOMM FM105 [-]       
1 41181U 15081C   24090.73085734  .00000592  00000+0  21601-3 0  9990
2 41181  47.0008  90.9554 0001158 160.6935 199.3989 14.44296380436623
ORBCOMM FM110 [+]       
1 41182U 15081D   24090.48615322  .00001725  00000+0  42210-3 0  9993
2 41182  46.9998 219.1345 0002459 278.3928  81.6678 14.56432834439627
ORBCOMM FM118 [+]       
1 41183U 15081E   24090.66916430  .00001791  00000+0  43676-3 0  9998
2 41183  47.0020 218.5690 0002635 277.5937  82.4648 14.56433629439752
ORBCOMM FM112 [+]       
1 41184U 15081F   24090.79924486  .00001212  00000+0  30764-3 0  9995
2 41184  46.9970 126.6662 0001119 219.0997 140.9807 14.56426552440998
ORBCOMM FM113 [+]       
1 41185U 15081G   24090.50190826  .00001420  00000+0  35412-3 0  9994
2 41185  46.9998 128.3256 0001299 235.9998 124.0764 14.56422751440930
